[{"OBJECT_NAME":"SNIPE 4","OBJECT_ID":"2023-072B","EPOCH":"2026-03-09T22:51:01.035648","MEAN_MOTION":15.38255292,"ECCENTRICITY":0.00053591,"INCLINATION":97.5358,"RA_OF_ASC_NODE":272.044,"ARG_OF_PERICENTER":330.1264,"MEAN_ANOMALY":29.9674,"EPHEMERIS_TYPE":0,"CLASSIFICATION_TYPE":"U","NORAD_CAT_ID":56744,"ELEMENT_SET_NO":999,"REV_AT_EPOCH":15483,"BSTAR":0.00061038687,"MEAN_MOTION_DOT":0.00022972,"MEAN_MOTION_DDOT":0},{"OBJECT_NAME":"FLOCK 4BE-24","OBJECT_ID":"2024-149AP","EPOCH":"2026-03-09T18:21:33.748416","MEAN_MOTION":15.39166711,"ECCENTRICITY":0.00030268,"INCLINATION":97.3756,"RA_OF_ASC_NODE":152.246,"ARG_OF_PERICENTER":272.0085,"MEAN_ANOMALY":88.0813,"EPHEMERIS_TYPE":0,"CLASSIFICATION_TYPE":"U","NORAD_CAT_ID":60505,"ELEMENT_SET_NO":999,"REV_AT_EPOCH":8705,"BSTAR":0.00054461583,"MEAN_MOTION_DOT":0.00021096,"MEAN_MOTION_DDOT":0}]
