SNIPE 4                 
1 56744U 23072B   26068.95209532  .00022972  00000+0  61039-3 0  9990
2 56744  97.5358 272.0440 0005359 330.1264  29.9674 15.38255292154835
FLOCK 4BE-24            
1 60505U 24149AP  26068.76497394  .00021096  00000+0  54462-3 0  9998
2 60505  97.3756 152.2460 0003026 272.0085  88.0813 15.39166711 87058
